start=new Date('2023-06-30T00:00:00.000Z').valueOf();
sats=[{"MEAN_ELEMENT_THEORY":"SGP4","RCS_SIZE":"LARGE","SITE":"AFETR","TLE_LINE2":"2 53170  53.2165 259.8428 0001006  79.1871 280.9234 15.08839172 53390","OBJECT_NAME":"STARLINK-4095","PERIAPSIS":"539.052","MEAN_ANOMALY":"280.9234","MEAN_MOTION":"15.08839172","DECAY_DATE":null,"COUNTRY_CODE":"US","OBJECT_ID":"2022-083AQ","ELEMENT_SET_NO":"999","RA_OF_ASC_NODE":"259.8428","LAUNCH_DATE":"2022-07-17","EPHEMERIS_TYPE":"0","EPOCH":"2023-06-28T22:15:11.496096","TLE_LINE1":"1 53170U 22083AQ  23179.92721639  .00000425  00000-0  44776-4 0  9995","CENTER_NAME":"EARTH","REF_FRAME":"TEME","BSTAR":"0.00004477600000","GP_ID":"234615815","CLASSIFICATION_TYPE":"U","NORAD_CAT_ID":"53170","REV_AT_EPOCH":"5339","APOAPSIS":"540.444","SEMIMAJOR_AXIS":"6917.883","ECCENTRICITY":"0.00010060","MEAN_MOTION_DOT":"0.00000425","INCLINATION":"53.2165","FILE":"3945386","MEAN_MOTION_DDOT":"0.0000000000000","TIME_SYSTEM":"UTC","OBJECT_TYPE":"PAYLOAD","ARG_OF_PERICENTER":"79.1871","PERIOD":"95.438"},{"FILE":"3945659","MEAN_MOTION_DDOT":"0.0000000000000","PERIOD":"95.438","TIME_SYSTEM":"UTC","OBJECT_TYPE":"PAYLOAD","ARG_OF_PERICENTER":"97.2260","CLASSIFICATION_TYPE":"U","BSTAR":"0.00006860200000","GP_ID":"234622460","SEMIMAJOR_AXIS":"6917.898","ECCENTRICITY":"0.00010790","MEAN_MOTION_DOT":"0.00000804","INCLINATION":"53.2162","NORAD_CAT_ID":"53171","REV_AT_EPOCH":"5382","APOAPSIS":"540.510","OBJECT_ID":"2022-083AR","ELEMENT_SET_NO":"999","RA_OF_ASC_NODE":"232.3858","LAUNCH_DATE":"2022-07-17","EPHEMERIS_TYPE":"0","COUNTRY_CODE":"US","CENTER_NAME":"EARTH","REF_FRAME":"TEME","EPOCH":"2023-06-29T10:21:48.757248","TLE_LINE1":"1 53171U 22083AR  23180.43181432  .00000804  00000-0  68602-4 0  9990","OBJECT_NAME":"STARLINK-4052","MEAN_ANOMALY":"262.8854","PERIAPSIS":"539.017","MEAN_ELEMENT_THEORY":"SGP4","RCS_SIZE":"LARGE","TLE_LINE2":"2 53171  53.2162 232.3858 0001079  97.2260 262.8854 15.08834180 53823","SITE":"AFETR","MEAN_MOTION":"15.08834180","DECAY_DATE":null},{"EPHEMERIS_TYPE":"0","LAUNCH_DATE":"2022-07-17","RA_OF_ASC_NODE":"259.8347","ELEMENT_SET_NO":"999","OBJECT_ID":"2022-083AS","COUNTRY_CODE":"US","REF_FRAME":"TEME","CENTER_NAME":"EARTH","TLE_LINE1":"1 53172U 22083AS  23179.91985025 -.00000561  00000-0 -17197-4 0  9997","EPOCH":"2023-06-28T22:04:35.061600","PERIAPSIS":"539.072","MEAN_ANOMALY":"274.9414","OBJECT_NAME":"STARLINK-4299","SITE":"AFETR","TLE_LINE2":"2 53172  53.2156 259.8347 0000978  85.1690 274.9414 15.08838831 53399","RCS_SIZE":"LARGE","MEAN_ELEMENT_THEORY":"SGP4","DECAY_DATE":null,"MEAN_MOTION":"15.08838831","MEAN_MOTION_DDOT":"0.0000000000000","FILE":"3945396","PERIOD":"95.438","ARG_OF_PERICENTER":"85.1690","TIME_SYSTEM":"UTC","OBJECT_TYPE":"PAYLOAD","CLASSIFICATION_TYPE":"U","GP_ID":"234615980","BSTAR":"-0.00001719700000","MEAN_MOTION_DOT":"-0.00000561","INCLINATION":"53.2156","ECCENTRICITY":"0.00009780","SEMIMAJOR_AXIS":"6917.884","APOAPSIS":"540.426","REV_AT_EPOCH":"5339","NORAD_CAT_ID":"53172"},{"BSTAR":"0.00005632600000","GP_ID":"234615822","CLASSIFICATION_TYPE":"U","REV_AT_EPOCH":"5368","NORAD_CAT_ID":"53173","APOAPSIS":"540.390","SEMIMAJOR_AXIS":"6917.886","MEAN_MOTION_DOT":"0.00000609","INCLINATION":"53.2160","ECCENTRICITY":"0.00009240","MEAN_MOTION_DDOT":"0.0000000000000","FILE":"3945387","OBJECT_TYPE":"PAYLOAD","TIME_SYSTEM":"UTC","ARG_OF_PERICENTER":"90.1431","PERIOD":"95.438","RCS_SIZE":"LARGE","MEAN_ELEMENT_THEORY":"SGP4","TLE_LINE2":"2 53173  53.2160 239.5292 0000924  90.1431 269.9667 15.08838266 53687","SITE":"AFETR","PERIAPSIS":"539.111","MEAN_ANOMALY":"269.9667","OBJECT_NAME":"STARLINK-4300","DECAY_DATE":null,"MEAN_MOTION":"15.08838266","COUNTRY_CODE":"US","OBJECT_ID":"2022-083AT","ELEMENT_SET_NO":"999","EPHEMERIS_TYPE":"0","LAUNCH_DATE":"2022-07-17","RA_OF_ASC_NODE":"239.5292","TLE_LINE1":"1 53173U 22083AT  23180.00634199  .00000609  00000-0  56326-4 0  9991","EPOCH":"2023-06-29T00:09:07.947936","CENTER_NAME":"EARTH","REF_FRAME":"TEME"},{"MEAN_MOTION":"15.08848571","DECAY_DATE":null,"OBJECT_NAME":"STARLINK-4205","MEAN_ANOMALY":"263.4411","PERIAPSIS":"538.983","TLE_LINE2":"2 53174  53.2178 271.4394 0001064  96.6703 263.4411 15.08848571 53309","SITE":"AFETR","MEAN_ELEMENT_THEORY":"SGP4","RCS_SIZE":"LARGE","REF_FRAME":"TEME","CENTER_NAME":"EARTH","EPOCH":"2023-06-29T16:43:23.461248","TLE_LINE1":"1 53174U 22083AU  23180.69679932  .00002927  00000-0  20185-3 0  9999","LAUNCH_DATE":"2022-07-17","RA_OF_ASC_NODE":"271.4394","EPHEMERIS_TYPE":"0","ELEMENT_SET_NO":"999","OBJECT_ID":"2022-083AU","COUNTRY_CODE":"US","ECCENTRICITY":"0.00010640","INCLINATION":"53.2178","MEAN_MOTION_DOT":"0.00002927","SEMIMAJOR_AXIS":"6917.854","APOAPSIS":"540.455","NORAD_CAT_ID":"53174","REV_AT_EPOCH":"5330","CLASSIFICATION_TYPE":"U","GP_ID":"234628786","BSTAR":"0.00020185000000","PERIOD":"95.437","ARG_OF_PERICENTER":"96.6703","OBJECT_TYPE":"PAYLOAD","TIME_SYSTEM":"UTC","FILE":"3945891","MEAN_MOTION_DDOT":"0.0000000000000"},{"SEMIMAJOR_AXIS":"6917.891","ECCENTRICITY":"0.00010080","MEAN_MOTION_DOT":"-0.00001346","INCLINATION":"53.2177","NORAD_CAT_ID":"53175","REV_AT_EPOCH":"5326","APOAPSIS":"540.453","CLASSIFICATION_TYPE":"U","BSTAR":"-0.00006651100000","GP_ID":"234622959","PERIOD":"95.438","OBJECT_TYPE":"PAYLOAD","TIME_SYSTEM":"UTC","ARG_OF_PERICENTER":"93.4882","FILE":"3945659","MEAN_MOTION_DDOT":"0.0000000000000","MEAN_MOTION":"15.08836658","DECAY_DATE":null,"OBJECT_NAME":"STARLINK-4292","MEAN_ANOMALY":"266.6226","PERIAPSIS":"539.058","MEAN_ELEMENT_THEORY":"SGP4","RCS_SIZE":"LARGE","SITE":"AFETR","TLE_LINE2":"2 53175  53.2177 272.6451 0001008  93.4882 266.6226 15.08836658 53264","CENTER_NAME":"EARTH","REF_FRAME":"TEME","EPOCH":"2023-06-29T10:16:33.396384","TLE_LINE1":"1 53175U 22083AV  23180.42816431 -.00001346  00000-0 -66511-4 0  9998","OBJECT_ID":"2022-083AV","ELEMENT_SET_NO":"999","EPHEMERIS_TYPE":"0","LAUNCH_DATE":"2022-07-17","RA_OF_ASC_NODE":"272.6451","COUNTRY_CODE":"US"},{"ELEMENT_SET_NO":"999","OBJECT_ID":"2022-083AW","RA_OF_ASC_NODE":"246.3471","LAUNCH_DATE":"2022-07-17","EPHEMERIS_TYPE":"0","COUNTRY_CODE":"US","CENTER_NAME":"EARTH","REF_FRAME":"TEME","TLE_LINE1":"1 53176U 22083AW  23180.69724971  .00001539  00000-0  11475-3 0  9995","EPOCH":"2023-06-29T16:44:02.374944","MEAN_ANOMALY":"272.5797","PERIAPSIS":"539.133","OBJECT_NAME":"STARLINK-4294","RCS_SIZE":"LARGE","MEAN_ELEMENT_THEORY":"SGP4","SITE":"AFETR","TLE_LINE2":"2 53176  53.2159 246.3471 0000858  87.5293 272.5797 15.08846143 53659","DECAY_DATE":null,"MEAN_MOTION":"15.08846143","MEAN_MOTION_DDOT":"0.0000000000000","FILE":"3945892","PERIOD":"95.437","TIME_SYSTEM":"UTC","OBJECT_TYPE":"PAYLOAD","ARG_OF_PERICENTER":"87.5293","CLASSIFICATION_TYPE":"U","BSTAR":"0.00011475000000","GP_ID":"234628302","SEMIMAJOR_AXIS":"6917.862","MEAN_MOTION_DOT":"0.00001539","INCLINATION":"53.2159","ECCENTRICITY":"0.00008580","REV_AT_EPOCH":"5365","NORAD_CAT_ID":"53176","APOAPSIS":"540.320"},{"COUNTRY_CODE":"US","EPHEMERIS_TYPE":"0","LAUNCH_DATE":"2022-07-17","RA_OF_ASC_NODE":"236.8836","OBJECT_ID":"2022-083AX","ELEMENT_SET_NO":"999","EPOCH":"2023-06-29T14:17:00.113280","TLE_LINE1":"1 53177U 22083AX  23180.59514020  .00000881  00000-0  73420-4 0  9995","REF_FRAME":"TEME","CENTER_NAME":"EARTH","TLE_LINE2":"2 53177  53.2161 236.8836 0001002  96.7087 263.4019 15.08842015 53770","SITE":"AFETR","MEAN_ELEMENT_THEORY":"SGP4","RCS_SIZE":"LARGE","OBJECT_NAME":"STARLINK-4298","PERIAPSIS":"539.046","MEAN_ANOMALY":"263.4019","MEAN_MOTION":"15.08842015","DECAY_DATE":null,"FILE":"3945892","MEAN_MOTION_DDOT":"0.0000000000000","ARG_OF_PERICENTER":"96.7087","OBJECT_TYPE":"PAYLOAD","TIME_SYSTEM":"UTC","PERIOD":"95.437","GP_ID":"234628301","BSTAR":"0.00007342000000","CLASSIFICATION_TYPE":"U","APOAPSIS":"540.432","NORAD_CAT_ID":"53177","REV_AT_EPOCH":"5377","ECCENTRICITY":"0.00010020","MEAN_MOTION_DOT":"0.00000881","INCLINATION":"53.2161","SEMIMAJOR_AXIS":"6917.874"},{"CLASSIFICATION_TYPE":"U","BSTAR":"0.00015092000000","GP_ID":"234628801","SEMIMAJOR_AXIS":"6917.855","INCLINATION":"53.2167","MEAN_MOTION_DOT":"0.00002115","ECCENTRICITY":"0.00009180","REV_AT_EPOCH":"5341","NORAD_CAT_ID":"53178","APOAPSIS":"540.356","MEAN_MOTION_DDOT":"0.0000000000000","FILE":"3945892","PERIOD":"95.437","TIME_SYSTEM":"UTC","OBJECT_TYPE":"PAYLOAD","ARG_OF_PERICENTER":"84.2200","PERIAPSIS":"539.085","MEAN_ANOMALY":"275.8896","OBJECT_NAME":"STARLINK-4280","RCS_SIZE":"LARGE","MEAN_ELEMENT_THEORY":"SGP4","SITE":"AFETR","TLE_LINE2":"2 53178  53.2167 261.7816 0000918  84.2200 275.8896 15.08848155 53418","DECAY_DATE":null,"MEAN_MOTION":"15.08848155","OBJECT_ID":"2022-083AY","ELEMENT_SET_NO":"999","LAUNCH_DATE":"2022-07-17","EPHEMERIS_TYPE":"0","RA_OF_ASC_NODE":"261.7816","COUNTRY_CODE":"US","CENTER_NAME":"EARTH","REF_FRAME":"TEME","TLE_LINE1":"1 53178U 22083AY  23180.62044050  .00002115  00000-0  15092-3 0  9993","EPOCH":"2023-06-29T14:53:26.059200"},{"OBJECT_TYPE":"PAYLOAD","TIME_SYSTEM":"UTC","ARG_OF_PERICENTER":"83.2356","PERIOD":"95.438","MEAN_MOTION_DDOT":"0.0000000000000","FILE":"3945666","REV_AT_EPOCH":"5396","NORAD_CAT_ID":"53179","APOAPSIS":"540.512","SEMIMAJOR_AXIS":"6917.882","MEAN_MOTION_DOT":"0.00000323","INCLINATION":"53.2157","ECCENTRICITY":"0.00011060","BSTAR":"0.00003839200000","GP_ID":"234623083","CLASSIFICATION_TYPE":"U","TLE_LINE1":"1 53179U 22083AZ  23180.41431394  .00000323  00000-0  38392-4 0  9990","EPOCH":"2023-06-29T09:56:36.724416","CENTER_NAME":"EARTH","REF_FRAME":"TEME","COUNTRY_CODE":"US","ELEMENT_SET_NO":"999","OBJECT_ID":"2022-083AZ","RA_OF_ASC_NODE":"222.3048","LAUNCH_DATE":"2022-07-17","EPHEMERIS_TYPE":"0","DECAY_DATE":null,"MEAN_MOTION":"15.08839407","RCS_SIZE":"LARGE","MEAN_ELEMENT_THEORY":"SGP4","TLE_LINE2":"2 53179  53.2157 222.3048 0001106  83.2356 276.8762 15.08839407 53962","SITE":"AFETR","MEAN_ANOMALY":"276.8762","PERIAPSIS":"538.982","OBJECT_NAME":"STARLINK-4276"}];
